[{"OBJECT_NAME":"STARLINK-30188","OBJECT_ID":"2023-105C","EPOCH":"2026-03-09T22:00:01.999584","MEAN_MOTION":15.12347559,"ECCENTRICITY":0.00023729,"INCLINATION":42.9998,"RA_OF_ASC_NODE":259.9305,"ARG_OF_PERICENTER":277.6311,"MEAN_ANOMALY":331.0502,"EPHEMERIS_TYPE":0,"CLASSIFICATION_TYPE":"U","NORAD_CAT_ID":57432,"ELEMENT_SET_NO":999,"REV_AT_EPOCH":572,"BSTAR":0.004944245,"MEAN_MOTION_DOT":0.00088094,"MEAN_MOTION_DDOT":0},{"OBJECT_NAME":"CZ-6A DEB","OBJECT_ID":"2022-151CR","EPOCH":"2026-03-09T17:17:08.438784","MEAN_MOTION":15.11778726,"ECCENTRICITY":0.00454354,"INCLINATION":98.5417,"RA_OF_ASC_NODE":160.2576,"ARG_OF_PERICENTER":86.1357,"MEAN_ANOMALY":274.5063,"EPHEMERIS_TYPE":0,"CLASSIFICATION_TYPE":"U","NORAD_CAT_ID":54346,"ELEMENT_SET_NO":999,"REV_AT_EPOCH":17769,"BSTAR":0.0041471579,"MEAN_MOTION_DOT":0.00073134,"MEAN_MOTION_DDOT":0}]
